LANDSAT 9               
1 49260U 21088A   23215.20106703  .00000608  00000+0  14499-3 0  9995
2 49260  98.2276 284.5249 0001299 107.8529 252.2811 14.57100587 98235
